{
  "links" : {
    "next" : "https://api.nasa.gov/neo/rest/v1/feed?start_date=2002-04-23&end_date=2002-04-23&detailed=true&api_key=t0TVs3DtDT2H8Oy2Zy8m2eVrNsAVKAexjcZXUckd",
    "prev" : "https://api.nasa.gov/neo/rest/v1/feed?start_date=2002-04-21&end_date=2002-04-21&detailed=true&api_key=t0TVs3DtDT2H8Oy2Zy8m2eVrNsAVKAexjcZXUckd",
    "self" : "https://api.nasa.gov/neo/rest/v1/feed?start_date=2002-04-22&end_date=2002-04-22&detailed=true&api_key=t0TVs3DtDT2H8Oy2Zy8m2eVrNsAVKAexjcZXUckd"
  },
  "element_count" : 5,
  "near_earth_objects" : {
    "2002-04-22" : [ {
      "links" : {
        "self" : "https://api.nasa.gov/neo/rest/v1/neo/3549392?api_key=t0TVs3DtDT2H8Oy2Zy8m2eVrNsAVKAexjcZXUckd"
      },
      "neo_reference_id" : "3549392",
      "name" : "(2010 TV149)",
      "nasa_jpl_url" : "http://ssd.jpl.nasa.gov/sbdb.cgi?sstr=3549392",
      "absolute_magnitude_h" : 18.6,
      "estimated_diameter" : {
        "kilometers" : {
          "estimated_diameter_min" : 0.5064714588,
          "estimated_diameter_max" : 1.1325046106
        },
        "meters" : {
          "estimated_diameter_min" : 506.4714588346,
          "estimated_diameter_max" : 1132.5046106177
        },
        "miles" : {
          "estimated_diameter_min" : 0.3147066768,
          "estimated_diameter_max" : 0.7037055224
        },
        "feet" : {
          "estimated_diameter_min" : 1661.651821003,
          "estimated_diameter_max" : 3715.566426699
        }
      },
      "is_potentially_hazardous_asteroid" : true,
      "close_approach_data" : [ {
        "close_approach_date" : "2002-04-22",
        "epoch_date_close_approach" : 1019458800000,
        "relative_velocity" : {
          "kilometers_per_second" : "26.0110182594",
          "kilometers_per_hour" : "93639.6657336942",
          "miles_per_hour" : "58184.0467443613"
        },
        "miss_distance" : {
          "astronomical" : "0.4847494514",
          "lunar" : "188.5675354004",
          "kilometers" : "72517488",
          "miles" : "45060280"
        },
        "orbiting_body" : "Earth"
      } ],
      "orbital_data" : {
        "orbit_id" : "42",
        "orbit_determination_date" : "2017-04-06 08:56:16",
        "orbit_uncertainty" : "0",
        "minimum_orbit_intersection" : ".0445167",
        "jupiter_tisserand_invariant" : "4.026",
        "epoch_osculation" : "2458000.5",
        "eccentricity" : ".5186944854624693",
        "semi_major_axis" : "1.698892015174571",
        "inclination" : "9.804909089772577",
        "ascending_node_longitude" : "78.69983183613212",
        "orbital_period" : "808.8110754032436",
        "perihelion_distance" : ".8176860955072994",
        "perihelion_argument" : "42.72482971526563",
        "aphelion_distance" : "2.580097934841843",
        "perihelion_time" : "2458002.410269725931",
        "mean_anomaly" : "359.1497432190921",
        "mean_motion" : ".4450977625652779",
        "equinox" : "J2000"
      }
    }, {
      "links" : {
        "self" : "https://api.nasa.gov/neo/rest/v1/neo/3634185?api_key=t0TVs3DtDT2H8Oy2Zy8m2eVrNsAVKAexjcZXUckd"
      },
      "neo_reference_id" : "3634185",
      "name" : "(2013 GY7)",
      "nasa_jpl_url" : "http://ssd.jpl.nasa.gov/sbdb.cgi?sstr=3634185",
      "absolute_magnitude_h" : 20.3,
      "estimated_diameter" : {
        "kilometers" : {
          "estimated_diameter_min" : 0.2315021222,
          "estimated_diameter_max" : 0.5176544822
        },
        "meters" : {
          "estimated_diameter_min" : 231.5021222103,
          "estimated_diameter_max" : 517.6544821978
        },
        "miles" : {
          "estimated_diameter_min" : 0.1438487052,
          "estimated_diameter_max" : 0.3216554833
        },
        "feet" : {
          "estimated_diameter_min" : 759.5214226325,
          "estimated_diameter_max" : 1698.3415313737
        }
      },
      "is_potentially_hazardous_asteroid" : true,
      "close_approach_data" : [ {
        "close_approach_date" : "2002-04-22",
        "epoch_date_close_approach" : 1019458800000,
        "relative_velocity" : {
          "kilometers_per_second" : "18.7136427551",
          "kilometers_per_hour" : "67369.1139184237",
          "miles_per_hour" : "41860.5474789228"
        },
        "miss_distance" : {
          "astronomical" : "0.4411112643",
          "lunar" : "171.5922851562",
          "kilometers" : "65989308",
          "miles" : "41003856"
        },
        "orbiting_body" : "Earth"
      } ],
      "orbital_data" : {
        "orbit_id" : "30",
        "orbit_determination_date" : "2017-04-06 08:46:16",
        "orbit_uncertainty" : "1",
        "minimum_orbit_intersection" : ".0298212",
        "jupiter_tisserand_invariant" : "5.003",
        "epoch_osculation" : "2458000.5",
        "eccentricity" : ".2304168486415756",
        "semi_major_axis" : "1.246415006710583",
        "inclination" : "29.57705078610708",
        "ascending_node_longitude" : "189.9209364317423",
        "orbital_period" : "508.2676054194396",
        "perihelion_distance" : ".9592199887647618",
        "perihelion_argument" : "128.5657565244606",
        "aphelion_distance" : "1.533610024656403",
        "perihelion_time" : "2458068.313805497885",
        "mean_anomaly" : "311.9682747455601",
        "mean_motion" : ".7082883035658271",
        "equinox" : "J2000"
      }
    }, {
      "links" : {
        "self" : "https://api.nasa.gov/neo/rest/v1/neo/3713268?api_key=t0TVs3DtDT2H8Oy2Zy8m2eVrNsAVKAexjcZXUckd"
      },
      "neo_reference_id" : "3713268",
      "name" : "(2015 EB7)",
      "nasa_jpl_url" : "http://ssd.jpl.nasa.gov/sbdb.cgi?sstr=3713268",
      "absolute_magnitude_h" : 21.5,
      "estimated_diameter" : {
        "kilometers" : {
          "estimated_diameter_min" : 0.1332155667,
          "estimated_diameter_max" : 0.2978790628
        },
        "meters" : {
          "estimated_diameter_min" : 133.2155666981,
          "estimated_diameter_max" : 297.8790627982
        },
        "miles" : {
          "estimated_diameter_min" : 0.0827762899,
          "estimated_diameter_max" : 0.1850934111
        },
        "feet" : {
          "estimated_diameter_min" : 437.0589598459,
          "estimated_diameter_max" : 977.2935443908
        }
      },
      "is_potentially_hazardous_asteroid" : false,
      "close_approach_data" : [ {
        "close_approach_date" : "2002-04-22",
        "epoch_date_close_approach" : 1019458800000,
        "relative_velocity" : {
          "kilometers_per_second" : "15.6352974176",
          "kilometers_per_hour" : "56287.0707034356",
          "miles_per_hour" : "34974.5967934764"
        },
        "miss_distance" : {
          "astronomical" : "0.3757903841",
          "lunar" : "146.1824645996",
          "kilometers" : "56217444",
          "miles" : "34931900"
        },
        "orbiting_body" : "Earth"
      } ],
      "orbital_data" : {
        "orbit_id" : "16",
        "orbit_determination_date" : "2017-04-05 06:17:36",
        "orbit_uncertainty" : "3",
        "minimum_orbit_intersection" : ".330539",
        "jupiter_tisserand_invariant" : "6.105",
        "epoch_osculation" : "2458000.5",
        "eccentricity" : ".4801481860442222",
        "semi_major_axis" : ".9577615879518544",
        "inclination" : "26.71342371524361",
        "ascending_node_longitude" : "15.79446585700748",
        "orbital_period" : "342.3612076859905",
        "perihelion_distance" : ".4978940988339376",
        "perihelion_argument" : "356.279213510382",
        "aphelion_distance" : "1.417629077069771",
        "perihelion_time" : "2457992.450198237935",
        "mean_anomaly" : "8.464535611176563",
        "mean_motion" : "1.051521001556308",
        "equinox" : "J2000"
      }
    } ]
  }
}